[{"OBJECT_NAME":"NUSAT-50 (NANCY ROMAN)","OBJECT_ID":"2024-149AB","EPOCH":"2026-03-09T19:15:16.765632","MEAN_MOTION":15.29713355,"ECCENTRICITY":0.00025229,"INCLINATION":97.3817,"RA_OF_ASC_NODE":150.7693,"ARG_OF_PERICENTER":238.0469,"MEAN_ANOMALY":122.0527,"EPHEMERIS_TYPE":0,"CLASSIFICATION_TYPE":"U","NORAD_CAT_ID":60493,"ELEMENT_SET_NO":999,"REV_AT_EPOCH":8693,"BSTAR":0.0004225155,"MEAN_MOTION_DOT":0.00012094,"MEAN_MOTION_DDOT":0},{"OBJECT_NAME":"STARLINK-35231","OBJECT_ID":"2025-221AC","EPOCH":"2026-03-09T08:16:26.114880","MEAN_MOTION":15.30192437,"ECCENTRICITY":0.00012111,"INCLINATION":53.1583,"RA_OF_ASC_NODE":90.4348,"ARG_OF_PERICENTER":83.8226,"MEAN_ANOMALY":276.2913,"EPHEMERIS_TYPE":0,"CLASSIFICATION_TYPE":"U","NORAD_CAT_ID":65849,"ELEMENT_SET_NO":999,"REV_AT_EPOCH":2602,"BSTAR":0.00069694266,"MEAN_MOTION_DOT":0.00020334,"MEAN_MOTION_DDOT":0}]
