NUSAT-50 (NANCY ROMAN)  
1 60493U 24149AB  26068.80227738  .00012094  00000+0  42252-3 0  9994
2 60493  97.3817 150.7693 0002523 238.0469 122.0527 15.29713355 86930
STARLINK-35231          
1 65849U 25221AC  26068.34474670  .00020334  00000+0  69694-3 0  9999
2 65849  53.1583  90.4348 0001211  83.8226 276.2913 15.30192437 26026
